[{"OBJECT_NAME":"OBJECT A","OBJECT_ID":"2024-105A","EPOCH":"2026-03-09T23:44:38.986368","MEAN_MOTION":15.16488121,"ECCENTRICITY":0.00126096,"INCLINATION":97.5907,"RA_OF_ASC_NODE":84.1581,"ARG_OF_PERICENTER":205.4504,"MEAN_ANOMALY":154.6109,"EPHEMERIS_TYPE":0,"CLASSIFICATION_TYPE":"U","NORAD_CAT_ID":59917,"ELEMENT_SET_NO":999,"REV_AT_EPOCH":9799,"BSTAR":0.00023793898,"MEAN_MOTION_DOT":4.573e-5,"MEAN_MOTION_DDOT":0},{"OBJECT_NAME":"GRBBETA","OBJECT_ID":"2024-128C","EPOCH":"2026-03-09T16:58:19.607232","MEAN_MOTION":15.05794613,"ECCENTRICITY":0.0051339,"INCLINATION":61.9904,"RA_OF_ASC_NODE":205.0764,"ARG_OF_PERICENTER":114.1677,"MEAN_ANOMALY":246.4795,"EPHEMERIS_TYPE":0,"CLASSIFICATION_TYPE":"U","NORAD_CAT_ID":60237,"ELEMENT_SET_NO":999,"REV_AT_EPOCH":9128,"BSTAR":0.00046403869,"MEAN_MOTION_DOT":6.748e-5,"MEAN_MOTION_DDOT":0}]
